{
    "links": {
        "self": "http://www.neowsapp.com/rest/v1/neo/54016397?api_key=iIulBulltgU6a56xZRHN4H3l9WmuAYTsLGpBGhQ2"
    },
    "id": "54016397",
    "neo_reference_id": "54016397",
    "name": "(2020 FZ5)",
    "designation": "2020 FZ5",
    "nasa_jpl_url": "http://ssd.jpl.nasa.gov/sbdb.cgi?sstr=54016397",
    "absolute_magnitude_h": 25.291,
    "estimated_diameter": {
        "kilometers": {
            "estimated_diameter_min": 0.0232463609,
            "estimated_diameter_max": 0.0519804433
        },
        "meters": {
            "estimated_diameter_min": 23.2463609353,
            "estimated_diameter_max": 51.9804432809
        },
        "miles": {
            "estimated_diameter_min": 0.0144446145,
            "estimated_diameter_max": 0.03229914
        },
        "feet": {
            "estimated_diameter_min": 76.2675908111,
            "estimated_diameter_max": 170.5395175338
        }
    },
    "is_potentially_hazardous_asteroid": false,
    "close_approach_data": [
        {
            "close_approach_date": "2015-04-10",
            "close_approach_date_full": "2015-Apr-10 11:49",
            "epoch_date_close_approach": 1428666540000,
            "relative_velocity": {
                "kilometers_per_second": "22.4147344822",
                "kilometers_per_hour": "80693.0441359258",
                "miles_per_hour": "50139.5195632368"
            },
            "miss_distance": {
                "astronomical": "0.2984381674",
                "lunar": "116.0924471186",
                "kilometers": "44645714.169743438",
                "miles": "27741560.3918299244"
            },
            "orbiting_body": "Earth"
        },
        {
            "close_approach_date": "2019-10-17",
            "close_approach_date_full": "2019-Oct-17 05:22",
            "epoch_date_close_approach": 1571289720000,
            "relative_velocity": {
                "kilometers_per_second": "14.173335498",
                "kilometers_per_hour": "51024.0077926942",
                "miles_per_hour": "31704.3341754104"
            },
            "miss_distance": {
                "astronomical": "0.4282014709",
                "lunar": "166.5703721801",
                "kilometers": "64058027.977506983",
                "miles": "39803812.8578950454"
            },
            "orbiting_body": "Earth"
        },
        {
            "close_approach_date": "2020-03-26",
            "close_approach_date_full": "2020-Mar-26 02:08",
            "epoch_date_close_approach": 1585188480000,
            "relative_velocity": {
                "kilometers_per_second": "16.5874545047",
                "kilometers_per_hour": "59714.8362167814",
                "miles_per_hour": "37104.4769814773"
            },
            "miss_distance": {
                "astronomical": "0.029607932",
                "lunar": "11.517485548",
                "kilometers": "4429283.56230484",
                "miles": "2752229.183053192"
            },
            "orbiting_body": "Earth"
        },
        {
            "close_approach_date": "2024-10-25",
            "close_approach_date_full": "2024-Oct-25 15:00",
            "epoch_date_close_approach": 1729868400000,
            "relative_velocity": {
                "kilometers_per_second": "15.4255200383",
                "kilometers_per_hour": "55531.8721378937",
                "miles_per_hour": "34505.3457736818"
            },
            "miss_distance": {
                "astronomical": "0.3232079697",
                "lunar": "125.7279002133",
                "kilometers": "48351223.834144539",
                "miles": "30044057.3290870782"
            },
            "orbiting_body": "Earth"
        }
    ],
    "orbital_data": {
        "orbit_id": "2",
        "orbit_determination_date": "2020-03-29 05:56:39",
        "first_observation_date": "2020-03-25",
        "last_observation_date": "2020-03-27",
        "data_arc_in_days": 2,
        "observations_used": 64,
        "orbit_uncertainty": "8",
        "minimum_orbit_intersection": ".0247285",
        "jupiter_tisserand_invariant": "4.583",
        "epoch_osculation": "2458934.5",
        "eccentricity": ".3675350842131623",
        "semi_major_axis": "1.396358862128166",
        "inclination": "27.1952133793191",
        "ascending_node_longitude": "7.689000337407472",
        "orbital_period": "602.6900135554856",
        "perihelion_distance": ".8831479901440947",
        "perihelion_argument": "118.6743591735445",
        "aphelion_distance": "1.909569734112236",
        "perihelion_time": "2458886.799545043921",
        "mean_anomaly": "28.49253081676873",
        "mean_motion": ".5973219929034999",
        "equinox": "J2000",
        "orbit_class": {
            "orbit_class_type": "APO",
            "orbit_class_description": "Near-Earth asteroid orbits which cross the Earth’s orbit similar to that of 1862 Apollo",
            "orbit_class_range": "a (semi-major axis) > 1.0 AU; q (perihelion) < 1.017 AU"
        }
    },
    "is_sentry_object": false
}